start=new Date('2021-12-12T00:00:00.000Z').valueOf();
sats=[{"INCLINATION":"53.0558","ARG_OF_PERICENTER":"76.8582","RCS_SIZE":"LARGE","PERIAPSIS":"546.364","OBJECT_NAME":"STARLINK-1601","TLE_LINE1":"1 46120U 20057D   21345.93131214 -.00000849  00000-0 -38137-4 0  9995","REF_FRAME":"TEME","PERIOD":"95.592","MEAN_MOTION_DDOT":"0.0000000000000","GP_ID":"191520460","EPOCH":"2021-12-11T22:21:05.368896","EPHEMERIS_TYPE":"0","FILE":"3237650","TIME_SYSTEM":"UTC","MEAN_ELEMENT_THEORY":"SGP4","BSTAR":"-0.00003813700000","TLE_LINE2":"2 46120  53.0558  69.2677 0001250  76.8582 283.2547 15.06394737 73918","ECCENTRICITY":"0.00012500","MEAN_MOTION_DOT":"-0.00000849","REV_AT_EPOCH":"7391","RA_OF_ASC_NODE":"69.2677","CLASSIFICATION_TYPE":"U","SITE":"AFETR","LAUNCH_DATE":"2020-08-18","COUNTRY_CODE":"US","OBJECT_TYPE":"PAYLOAD","NORAD_CAT_ID":"46120","SEMIMAJOR_AXIS":"6925.365","DECAY_DATE":null,"APOAPSIS":"548.095","MEAN_ANOMALY":"283.2547","CENTER_NAME":"EARTH","OBJECT_ID":"2020-057D","ELEMENT_SET_NO":"999","MEAN_MOTION":"15.06394737"},{"RA_OF_ASC_NODE":"49.4112","CLASSIFICATION_TYPE":"U","SITE":"AFETR","LAUNCH_DATE":"2020-08-18","COUNTRY_CODE":"US","OBJECT_TYPE":"PAYLOAD","NORAD_CAT_ID":"46121","DECAY_DATE":null,"APOAPSIS":"548.303","SEMIMAJOR_AXIS":"6925.376","MEAN_ANOMALY":"299.7720","MEAN_MOTION":"15.06390923","ELEMENT_SET_NO":"999","OBJECT_ID":"2020-057E","CENTER_NAME":"EARTH","ARG_OF_PERICENTER":"60.3422","RCS_SIZE":"LARGE","INCLINATION":"53.0559","OBJECT_NAME":"STARLINK-1602","PERIAPSIS":"546.180","TLE_LINE1":"1 46121U 20057E   21345.89998200 -.00000846  00000-0 -37945-4 0  9990","PERIOD":"95.593","MEAN_MOTION_DDOT":"0.0000000000000","REF_FRAME":"TEME","GP_ID":"191521203","EPOCH":"2021-12-11T21:35:58.444800","FILE":"3237650","EPHEMERIS_TYPE":"0","TLE_LINE2":"2 46121  53.0559  49.4112 0001533  60.3422 299.7720 15.06390923 72905","ECCENTRICITY":"0.00015330","TIME_SYSTEM":"UTC","BSTAR":"-0.00003794500000","MEAN_ELEMENT_THEORY":"SGP4","MEAN_MOTION_DOT":"-0.00000846","REV_AT_EPOCH":"7290"},{"TLE_LINE1":"1 46122U 20057F   21345.84285367 -.00000742  00000-0 -30933-4 0  9994","REF_FRAME":"TEME","MEAN_MOTION_DDOT":"0.0000000000000","PERIOD":"95.593","INCLINATION":"53.0553","RCS_SIZE":"LARGE","ARG_OF_PERICENTER":"60.0297","PERIAPSIS":"546.166","OBJECT_NAME":"STARLINK-1604","MEAN_ELEMENT_THEORY":"SGP4","BSTAR":"-0.00003093300000","TIME_SYSTEM":"UTC","ECCENTRICITY":"0.00015390","TLE_LINE2":"2 46122  53.0553  29.6578 0001539  60.0297 300.0844 15.06394197 74439","MEAN_MOTION_DOT":"-0.00000742","REV_AT_EPOCH":"7443","GP_ID":"191519459","FILE":"3237650","EPHEMERIS_TYPE":"0","EPOCH":"2021-12-11T20:13:42.557088","OBJECT_TYPE":"PAYLOAD","COUNTRY_CODE":"US","NORAD_CAT_ID":"46122","CLASSIFICATION_TYPE":"U","RA_OF_ASC_NODE":"29.6578","LAUNCH_DATE":"2020-08-18","SITE":"AFETR","OBJECT_ID":"2020-057F","CENTER_NAME":"EARTH","MEAN_MOTION":"15.06394197","ELEMENT_SET_NO":"999","SEMIMAJOR_AXIS":"6925.366","APOAPSIS":"548.297","DECAY_DATE":null,"MEAN_ANOMALY":"300.0844"},{"DECAY_DATE":null,"APOAPSIS":"548.102","SEMIMAJOR_AXIS":"6925.325","MEAN_ANOMALY":"295.7326","MEAN_MOTION":"15.06407656","ELEMENT_SET_NO":"999","OBJECT_ID":"2020-057G","CENTER_NAME":"EARTH","RA_OF_ASC_NODE":"29.7298","CLASSIFICATION_TYPE":"U","SITE":"AFETR","LAUNCH_DATE":"2020-08-18","COUNTRY_CODE":"US","OBJECT_TYPE":"PAYLOAD","NORAD_CAT_ID":"46123","GP_ID":"191519709","EPOCH":"2021-12-11T19:52:27.712128","FILE":"3237650","EPHEMERIS_TYPE":"0","TLE_LINE2":"2 46123  53.0559  29.7298 0001317  64.3799 295.7326 15.06407656 74456","ECCENTRICITY":"0.00013170","TIME_SYSTEM":"UTC","BSTAR":"-0.00000711120000","MEAN_ELEMENT_THEORY":"SGP4","REV_AT_EPOCH":"7445","MEAN_MOTION_DOT":"-0.00000387","ARG_OF_PERICENTER":"64.3799","RCS_SIZE":"LARGE","INCLINATION":"53.0559","OBJECT_NAME":"STARLINK-1605","PERIAPSIS":"546.278","TLE_LINE1":"1 46123U 20057G   21345.82809852 -.00000387  00000-0 -71112-5 0  9994","PERIOD":"95.592","MEAN_MOTION_DDOT":"0.0000000000000","REF_FRAME":"TEME"},{"SEMIMAJOR_AXIS":"6925.365","DECAY_DATE":null,"APOAPSIS":"548.182","MEAN_ANOMALY":"311.1078","CENTER_NAME":"EARTH","OBJECT_ID":"2020-057H","MEAN_MOTION":"15.06394724","ELEMENT_SET_NO":"999","RA_OF_ASC_NODE":"29.7041","CLASSIFICATION_TYPE":"U","SITE":"AFETR","LAUNCH_DATE":"2020-08-18","COUNTRY_CODE":"US","OBJECT_TYPE":"PAYLOAD","NORAD_CAT_ID":"46124","GP_ID":"191520953","EPOCH":"2021-12-11T20:03:05.772672","EPHEMERIS_TYPE":"0","FILE":"3237650","TIME_SYSTEM":"UTC","MEAN_ELEMENT_THEORY":"SGP4","BSTAR":"-0.00001818600000","TLE_LINE2":"2 46124  53.0561  29.7041 0001375  49.0029 311.1078 15.06394724 73183","ECCENTRICITY":"0.00013750","REV_AT_EPOCH":"7318","MEAN_MOTION_DOT":"-0.00000552","INCLINATION":"53.0561","ARG_OF_PERICENTER":"49.0029","RCS_SIZE":"LARGE","PERIAPSIS":"546.277","OBJECT_NAME":"STARLINK-1614","TLE_LINE1":"1 46124U 20057H   21345.83548348 -.00000552  00000-0 -18186-4 0  9991","REF_FRAME":"TEME","PERIOD":"95.592","MEAN_MOTION_DDOT":"0.0000000000000"},{"SITE":"AFETR","LAUNCH_DATE":"2020-08-18","RA_OF_ASC_NODE":"70.6624","CLASSIFICATION_TYPE":"U","NORAD_CAT_ID":"46125","COUNTRY_CODE":"US","OBJECT_TYPE":"PAYLOAD","MEAN_ANOMALY":"266.5578","DECAY_DATE":null,"APOAPSIS":"548.448","SEMIMAJOR_AXIS":"6925.416","ELEMENT_SET_NO":"999","MEAN_MOTION":"15.06377977","OBJECT_ID":"2020-057J","CENTER_NAME":"EARTH","OBJECT_NAME":"STARLINK-1618","PERIAPSIS":"546.114","ARG_OF_PERICENTER":"93.5603","RCS_SIZE":"LARGE","INCLINATION":"53.0543","PERIOD":"95.594","MEAN_MOTION_DDOT":"0.0000000000000","REF_FRAME":"TEME","TLE_LINE1":"1 46125U 20057J   21345.61800779  .00003644  00000-0  26353-3 0  9994","EPOCH":"2021-12-11T14:49:55.873056","EPHEMERIS_TYPE":"0","FILE":"3237650","GP_ID":"191520711","MEAN_MOTION_DOT":"0.00003644","REV_AT_EPOCH":"7384","TLE_LINE2":"2 46125  53.0543  70.6624 0001685  93.5603 266.5578 15.06377977 73844","ECCENTRICITY":"0.00016850","TIME_SYSTEM":"UTC","BSTAR":"0.00026353000000","MEAN_ELEMENT_THEORY":"SGP4"},{"CENTER_NAME":"EARTH","OBJECT_ID":"2020-057K","ELEMENT_SET_NO":"999","MEAN_MOTION":"15.06401932","SEMIMAJOR_AXIS":"6925.343","APOAPSIS":"548.354","DECAY_DATE":null,"MEAN_ANOMALY":"315.4703","OBJECT_TYPE":"PAYLOAD","COUNTRY_CODE":"US","NORAD_CAT_ID":"46126","CLASSIFICATION_TYPE":"U","RA_OF_ASC_NODE":"70.4203","LAUNCH_DATE":"2020-08-18","SITE":"AFETR","MEAN_ELEMENT_THEORY":"SGP4","BSTAR":"0.00001208800000","TIME_SYSTEM":"UTC","ECCENTRICITY":"0.00016560","TLE_LINE2":"2 46126  53.0717  70.4203 0001656  44.6419 315.4703 15.06401932 72593","REV_AT_EPOCH":"7259","MEAN_MOTION_DOT":"-0.00000101","GP_ID":"191519952","EPHEMERIS_TYPE":"0","FILE":"3237650","EPOCH":"2021-12-11T15:48:18.789984","TLE_LINE1":"1 46126U 20057K   21345.65855081 -.00000101  00000-0  12088-4 0  9992","REF_FRAME":"TEME","MEAN_MOTION_DDOT":"0.0000000000000","PERIOD":"95.592","INCLINATION":"53.0717","RCS_SIZE":"LARGE","ARG_OF_PERICENTER":"44.6419","PERIAPSIS":"546.061","OBJECT_NAME":"STARLINK-1619"},{"MEAN_ANOMALY":"293.8407","DECAY_DATE":null,"APOAPSIS":"548.045","SEMIMAJOR_AXIS":"6925.331","ELEMENT_SET_NO":"999","MEAN_MOTION":"15.06405619","CENTER_NAME":"EARTH","OBJECT_ID":"2020-057L","SITE":"AFETR","LAUNCH_DATE":"2020-08-18","RA_OF_ASC_NODE":"49.3426","CLASSIFICATION_TYPE":"U","NORAD_CAT_ID":"46127","COUNTRY_CODE":"US","OBJECT_TYPE":"PAYLOAD","EPOCH":"2021-12-11T21:57:11.439072","EPHEMERIS_TYPE":"0","FILE":"3237650","GP_ID":"191520202","MEAN_MOTION_DOT":"0.00001080","REV_AT_EPOCH":"7290","TLE_LINE2":"2 46127  53.0551  49.3426 0001226  66.2711 293.8407 15.06405619 72901","ECCENTRICITY":"0.00012260","TIME_SYSTEM":"UTC","BSTAR":"0.00009138500000","MEAN_ELEMENT_THEORY":"SGP4","OBJECT_NAME":"STARLINK-1621","PERIAPSIS":"546.347","ARG_OF_PERICENTER":"66.2711","RCS_SIZE":"LARGE","INCLINATION":"53.0551","PERIOD":"95.592","MEAN_MOTION_DDOT":"0.0000000000000","REF_FRAME":"TEME","TLE_LINE1":"1 46127U 20057L   21345.91471573  .00001080  00000-0  91385-4 0  9995"},{"ELEMENT_SET_NO":"999","MEAN_MOTION":"15.06398251","OBJECT_ID":"2020-057M","CENTER_NAME":"EARTH","APOAPSIS":"548.365","DECAY_DATE":null,"SEMIMAJOR_AXIS":"6925.354","MEAN_ANOMALY":"300.0167","OBJECT_TYPE":"PAYLOAD","COUNTRY_CODE":"US","NORAD_CAT_ID":"46128","CLASSIFICATION_TYPE":"U","RA_OF_ASC_NODE":"30.7135","LAUNCH_DATE":"2020-08-18","SITE":"AFETR","ECCENTRICITY":"0.00016550","TLE_LINE2":"2 46128  53.0565  30.7135 0001655  60.0986 300.0167 15.06398251 73144","MEAN_ELEMENT_THEORY":"SGP4","BSTAR":"-0.00005735200000","TIME_SYSTEM":"UTC","MEAN_MOTION_DOT":"-0.00001136","REV_AT_EPOCH":"7314","GP_ID":"191520461","EPHEMERIS_TYPE":"0","FILE":"3237650","EPOCH":"2021-12-11T14:39:18.540864","TLE_LINE1":"1 46128U 20057M   21345.61063126 -.00001136  00000-0 -57352-4 0  9994","MEAN_MOTION_DDOT":"0.0000000000000","PERIOD":"95.592","REF_FRAME":"TEME","RCS_SIZE":"LARGE","ARG_OF_PERICENTER":"60.0986","INCLINATION":"53.0565","OBJECT_NAME":"STARLINK-1622","PERIAPSIS":"546.073"},{"CLASSIFICATION_TYPE":"U","RA_OF_ASC_NODE":"29.6364","LAUNCH_DATE":"2020-08-18","SITE":"AFETR","OBJECT_TYPE":"PAYLOAD","COUNTRY_CODE":"US","NORAD_CAT_ID":"46129","APOAPSIS":"548.193","DECAY_DATE":null,"SEMIMAJOR_AXIS":"6925.348","MEAN_ANOMALY":"290.9260","ELEMENT_SET_NO":"999","MEAN_MOTION":"15.06400286","OBJECT_ID":"2020-057N","CENTER_NAME":"EARTH","RCS_SIZE":"LARGE","ARG_OF_PERICENTER":"69.1880","INCLINATION":"53.0564","OBJECT_NAME":"STARLINK-1623","PERIAPSIS":"546.232","TLE_LINE1":"1 46129U 20057N   21345.85021282  .00001358  00000-0  11007-3 0  9998","MEAN_MOTION_DDOT":"0.0000000000000","PERIOD":"95.592","REF_FRAME":"TEME","GP_ID":"191521204","FILE":"3237650","EPHEMERIS_TYPE":"0","EPOCH":"2021-12-11T20:24:18.387648","ECCENTRICITY":"0.00014160","TLE_LINE2":"2 46129  53.0564  29.6364 0001416  69.1880 290.9260 15.06400286 73180","BSTAR":"0.00011007000000","MEAN_ELEMENT_THEORY":"SGP4","TIME_SYSTEM":"UTC","MEAN_MOTION_DOT":"0.00001358","REV_AT_EPOCH":"7318"}];
